{"type": "FeatureCollection", "features": [ {"type": "Feature", "properties": {"norad_id": 66499, "name": "STARLINK-35816", "group": "last-30-days", "lat": -6.470761671596962, "lon": -25.933001041412904, "alt_km": 415.5063627709269, "timestamp": "2025-12-08T23:34:02.739284+00:00", "meta": {"OBJECT_NAME": "STARLINK-35816", "OBJECT_ID": "2025-263Q", "EPOCH": "2025-12-08T14:00:01.999872", "MEAN_MOTION": 15.50589054, "ECCENTRICITY": 0.00014538, "INCLINATION": 43, "RA_OF_ASC_NODE": 149.4081, "ARG_OF_PERICENTER": 263.8967, "MEAN_ANOMALY": 217.776, "EPHEMERIS_TYPE": 0, "CLASSIFICATION_TYPE": "U", "NORAD_CAT_ID": 66499, "ELEMENT_SET_NO": 999, "REV_AT_EPOCH": 496, "BSTAR": -0.0011050161, "MEAN_MOTION_DOT": -0.00064658, "MEAN_MOTION_DDOT": 0}, "tle": {"line1": "1 66499U 25263Q   25342.58335648 -.00064658  00000+0 -11050-2 0  9999", "line2": "2 66499  43.0000 149.4081 0001453 263.8967 217.7760 15.50589054  4965"}}, "geometry": {"type": "Point", "coordinates": [-25.933001041412904, -6.470761671596962]}}, {"type": "Feature", "properties": {"norad_id": 66500, "name": "STARLINK-35894", "group": "last-30-days", "lat": 24.38445918330433, "lon": -61.9164180244462, "alt_km": 411.86772879231285, "timestamp": "2025-12-08T23:34:02.739297+00:00", "meta": {"OBJECT_NAME": "STARLINK-35894", "OBJECT_ID": "2025-263R", "EPOCH": "2025-12-08T14:00:01.999872", "MEAN_MOTION": 15.5058555, "ECCENTRICITY": 0.00010832, "INCLINATION": 43.0001, "RA_OF_ASC_NODE": 149.5228, "ARG_OF_PERICENTER": 284.5574, "MEAN_ANOMALY": 150.3366, "EPHEMERIS_TYPE": 0, "CLASSIFICATION_TYPE": "U", "NORAD_CAT_ID": 66500, "ELEMENT_SET_NO": 999, "REV_AT_EPOCH": 496, "BSTAR": -0.00085437015, "MEAN_MOTION_DOT": -0.00050153, "MEAN_MOTION_DDOT": 0}, "tle": {"line1": "1 66500U 25263R   25342.58335648 -.00050153  00000+0 -85437-3 0  9998", "line2": "2 66500  43.0001 149.5228 0001083 284.5574 150.3366 15.50585550  4967"}}, "geometry": {"type": "Point", "coordinates": [-61.9164180244462, 24.38445918330433]}}, {"type": "Feature", "properties": {"norad_id": 66501, "name": "STARLINK-35897", "group": "last-30-days", "lat": -7.7598403042597095, "lon": -24.52017016619148, "alt_km": 415.92149208489354, "timestamp": "2025-12-08T23:34:02.739307+00:00", "meta": {"OBJECT_NAME": "STARLINK-35897", "OBJECT_ID": "2025-263S", "EPOCH": "2025-12-08T14:00:01.999872", "MEAN_MOTION": 15.50571958, "ECCENTRICITY": 0.0001732, "INCLINATION": 43.0001, "RA_OF_ASC_NODE": 149.4032, "ARG_OF_PERICENTER": 286.2129, "MEAN_ANOMALY": 197.3562, "EPHEMERIS_TYPE": 0, "CLASSIFICATION_TYPE": "U", "NORAD_CAT_ID": 66501, "ELEMENT_SET_NO": 999, "REV_AT_EPOCH": 496, "BSTAR": 8.4885059e-05, "MEAN_MOTION_DOT": 4.64e-05, "MEAN_MOTION_DDOT": 0}, "tle": {"line1": "1 66501U 25263S   25342.58335648  .00004640  00000+0  84885-4 0  9994", "line2": "2 66501  43.0001 149.4032 0001732 286.2129 197.3562 15.50571958  4962"}}, "geometry": {"type": "Point", "coordinates": [-24.52017016619148, -7.7598403042597095]}}, {"type": "Feature", "properties": {"norad_id": 66502, "name": "STARLINK-35922", "group": "last-30-days", "lat": -11.616955116376307, "lon": -20.19884101394792, "alt_km": 415.9564293962603, "timestamp": "2025-12-08T23:34:02.739317+00:00", "meta": {"OBJECT_NAME": "STARLINK-35922", "OBJECT_ID": "2025-263T", "EPOCH": "2025-12-08T14:00:01.999872", "MEAN_MOTION": 15.50583301, "ECCENTRICITY": 0.00015562, "INCLINATION": 43.0001, "RA_OF_ASC_NODE": 149.3882, "ARG_OF_PERICENTER": 265.7672, "MEAN_ANOMALY": 223.5759, "EPHEMERIS_TYPE": 0, "CLASSIFICATION_TYPE": "U", "NORAD_CAT_ID": 66502, "ELEMENT_SET_NO": 999, "REV_AT_EPOCH": 496, "BSTAR": -0.00094742461, "MEAN_MOTION_DOT": -0.00055538, "MEAN_MOTION_DDOT": 0}, "tle": {"line1": "1 66502U 25263T   25342.58335648 -.00055538  00000+0 -94742-3 0  9991", "line2": "2 66502  43.0001 149.3882 0001556 265.7672 223.5759 15.50583301  4969"}}, "geometry": {"type": "Point", "coordinates": [-20.19884101394792, -11.616955116376307]}}, {"type": "Feature", "properties": {"norad_id": 66503, "name": "STARLINK-35917", "group": "last-30-days", "lat": -14.137310202503514, "lon": -17.27204771395852, "alt_km": 416.4111793801867, "timestamp": "2025-12-08T23:34:02.739327+00:00", "meta": {"OBJECT_NAME": "STARLINK-35917", "OBJECT_ID": "2025-263U", "EPOCH": "2025-12-08T14:00:01.999872", "MEAN_MOTION": 15.50561937, "ECCENTRICITY": 0.00016903, "INCLINATION": 43, "RA_OF_ASC_NODE": 149.3782, "ARG_OF_PERICENTER": 286.6995, "MEAN_ANOMALY": 206.4484, "EPHEMERIS_TYPE": 0, "CLASSIFICATION_TYPE": "U", "NORAD_CAT_ID": 66503, "ELEMENT_SET_NO": 999, "REV_AT_EPOCH": 496, "BSTAR": 0.00035913324, "MEAN_MOTION_DOT": 0.0002077, "MEAN_MOTION_DDOT": 0}, "tle": {"line1": "1 66503U 25263U   25342.58335648  .00020770  00000+0  35913-3 0  9995", "line2": "2 66503  43.0000 149.3782 0001690 286.6995 206.4484 15.50561937  4963"}}, "geometry": {"type": "Point", "coordinates": [-17.27204771395852, -14.137310202503514]}}, {"type": "Feature", "properties": {"norad_id": 66504, "name": "STARLINK-35916", "group": "last-30-days", "lat": 34.79825366739949, "lon": -163.48880353587808, "alt_km": 439.365066695942, "timestamp": "2025-12-08T23:34:02.739337+00:00", "meta": {"OBJECT_NAME": "STARLINK-35916", "OBJECT_ID": "2025-263V", "EPOCH": "2025-12-08T14:00:01.999872", "MEAN_MOTION": 15.40670147, "ECCENTRICITY": 0.00014143, "INCLINATION": 43.0003, "RA_OF_ASC_NODE": 150.5819, "ARG_OF_PERICENTER": 264.9694, "MEAN_ANOMALY": 98.3528, "EPHEMERIS_TYPE": 0, "CLASSIFICATION_TYPE": "U", "NORAD_CAT_ID": 66504, "ELEMENT_SET_NO": 999, "REV_AT_EPOCH": 496, "BSTAR": 0.00051991951, "MEAN_MOTION_DOT": 0.00021454, "MEAN_MOTION_DDOT": 0}, "tle": {"line1": "1 66504U 25263V   25342.58335648  .00021454  00000+0  51992-3 0  9991", "line2": "2 66504  43.0003 150.5819 0001414 264.9694  98.3528 15.40670147  4961"}}, "geometry": {"type": "Point", "coordinates": [-163.48880353587808, 34.79825366739949]}}, {"type": "Feature", "properties": {"norad_id": 66505, "name": "STARLINK-34766", "group": "last-30-days", "lat": -9.052303693259068, "lon": -23.090664621598734, "alt_km": 416.1315936491528, "timestamp": "2025-12-08T23:34:02.739348+00:00", "meta": {"OBJECT_NAME": "STARLINK-34766", "OBJECT_ID": "2025-263W", "EPOCH": "2025-12-08T14:00:01.999872", "MEAN_MOTION": 15.50628376, "ECCENTRICITY": 0.00017401, "INCLINATION": 43.0001, "RA_OF_ASC_NODE": 149.3972, "ARG_OF_PERICENTER": 286.6918, "MEAN_ANOMALY": 198.7809, "EPHEMERIS_TYPE": 0, "CLASSIFICATION_TYPE": "U", "NORAD_CAT_ID": 66505, "ELEMENT_SET_NO": 999, "REV_AT_EPOCH": 496, "BSTAR": -0.0018139384, "MEAN_MOTION_DOT": -0.00105523, "MEAN_MOTION_DDOT": 0}, "tle": {"line1": "1 66505U 25263W   25342.58335648 -.00105523  00000+0 -18139-2 0  9999", "line2": "2 66505  43.0001 149.3972 0001740 286.6918 198.7809 15.50628376  4963"}}, "geometry": {"type": "Point", "coordinates": [-23.090664621598734, -9.052303693259068]}}, {"type": "Feature", "properties": {"norad_id": 66506, "name": "STARLINK-34765", "group": "last-30-days", "lat": -10.335970973434012, "lon": -21.652496253754443, "alt_km": 416.22812139181224, "timestamp": "2025-12-08T23:34:02.739358+00:00", "meta": {"OBJECT_NAME": "STARLINK-34765", "OBJECT_ID": "2025-263X", "EPOCH": "2025-12-08T14:00:01.999872", "MEAN_MOTION": 15.50628732, "ECCENTRICITY": 0.00016224, "INCLINATION": 42.9999, "RA_OF_ASC_NODE": 149.393, "ARG_OF_PERICENTER": 287.0013, "MEAN_ANOMALY": 200.3846, "EPHEMERIS_TYPE": 0, "CLASSIFICATION_TYPE": "U", "NORAD_CAT_ID": 66506, "ELEMENT_SET_NO": 999, "REV_AT_EPOCH": 496, "BSTAR": -0.0017843534, "MEAN_MOTION_DOT": -0.0010383, "MEAN_MOTION_DDOT": 0}, "tle": {"line1": "1 66506U 25263X   25342.58335648 -.00103830  00000+0 -17844-2 0  9991", "line2": "2 66506  42.9999 149.3930 0001622 287.0013 200.3846 15.50628732  4969"}}, "geometry": {"type": "Point", "coordinates": [-21.652496253754443, -10.335970973434012]}}, {"type": "Feature", "properties": {"norad_id": 66507, "name": "STARLINK-34767", "group": "last-30-days", "lat": -12.890663932613363, "lon": -18.73225679969778, "alt_km": 416.1295484514494, "timestamp": "2025-12-08T23:34:02.739370+00:00", "meta": {"OBJECT_NAME": "STARLINK-34767", "OBJECT_ID": "2025-263Y", "EPOCH": "2025-12-08T14:00:01.999872", "MEAN_MOTION": 15.5059559, "ECCENTRICITY": 0.00013241, "INCLINATION": 43.0001, "RA_OF_ASC_NODE": 149.3828, "ARG_OF_PERICENTER": 266.5088, "MEAN_ANOMALY": 224.7471, "EPHEMERIS_TYPE": 0, "CLASSIFICATION_TYPE": "U", "NORAD_CAT_ID": 66507, "ELEMENT_SET_NO": 999, "REV_AT_EPOCH": 496, "BSTAR": -0.0012762334, "MEAN_MOTION_DOT": -0.00074546, "MEAN_MOTION_DDOT": 0}, "tle": {"line1": "1 66507U 25263Y   25342.58335648 -.00074546  00000+0 -12762-2 0  9997", "line2": "2 66507  43.0001 149.3828 0001324 266.5088 224.7471 15.50595590  4964"}}, "geometry": {"type": "Point", "coordinates": [-18.73225679969778, -12.890663932613363]}}, {"type": "Feature", "properties": {"norad_id": 66508, "name": "STARLINK-35608", "group": "last-30-days", "lat": -16.631281931517893, "lon": -14.266921700212517, "alt_km": 416.58532261091204, "timestamp": "2025-12-08T23:34:02.739382+00:00", "meta": {"OBJECT_NAME": "STARLINK-35608", "OBJECT_ID": "2025-263Z", "EPOCH": "2025-12-08T14:00:01.999872", "MEAN_MOTION": 15.50562586, "ECCENTRICITY": 0.00016882, "INCLINATION": 43, "RA_OF_ASC_NODE": 149.3688, "ARG_OF_PERICENTER": 287.4202, "MEAN_ANOMALY": 209.5573, "EPHEMERIS_TYPE": 0, "CLASSIFICATION_TYPE": "U", "NORAD_CAT_ID": 66508, "ELEMENT_SET_NO": 999, "REV_AT_EPOCH": 496, "BSTAR": 0.00038687475, "MEAN_MOTION_DOT": 0.00022406, "MEAN_MOTION_DDOT": 0}, "tle": {"line1": "1 66508U 25263Z   25342.58335648  .00022406  00000+0  38687-3 0  9999", "line2": "2 66508  43.0000 149.3688 0001688 287.4202 209.5573 15.50562586  4964"}}, "geometry": {"type": "Point", "coordinates": [-14.266921700212517, -16.631281931517893]}}]}